0 THOR ABLESTAR DEB
1 00223U 61015BK  13282.07179171 -.00000036  00000-0  32556-4 0  5710
2 00223 066.8931 034.3159 0065650 023.5813 029.5024 13.88440881647858
0 THOR ABLESTAR DEB
1 00223U 61015BK  13284.08907770 -.00000031  00000-0  36394-4 0  5727
2 00223 066.8933 029.4285 0065811 022.0990 032.7209 13.88441116648139
0 THOR ABLESTAR DEB
1 00223U 61015BK  13286.10561198 -.00000016  00000-0  48454-4 0  5736
2 00223 066.8935 024.5430 0065964 020.5900 032.2116 13.88441140648412
0 THOR ABLESTAR DEB
1 00223U 61015BK  13288.48801380  .00000014  00000-0  73578-4 0  5742
2 00223 066.8933 018.7713 0066142 018.8383 060.4326 13.88441361648740
0 THOR ABLESTAR DEB
1 00223U 61015BK  13290.65518390  .00000017  00000-0  75885-4 0  5757
2 00223 066.8930 013.5208 0066322 017.2581 092.8258 13.88441594649047
0 THOR ABLESTAR DEB
1 00223U 61015BK  13292.68257332 -.00000003  00000-0  59579-4 0  5767
2 00223 066.8927 008.6089 0066483 015.7714 146.5481 13.88442178649329
0 THOR ABLESTAR DEB
1 00223U 61015BK  13294.68272233  .00000003  00000-0  64500-4 0  5776
2 00223 066.8926 003.7629 0066652 014.3040 064.1171 13.88442525649607
